STARLINK-5557           
1 55770U 23028AF  23080.58335648 -.00007333  00000+0 -59258-4 0  9994
2 55770  69.9938 105.0811 0003582 271.6159  34.4616 15.69927575  1309
STARLINK-5591           
1 55771U 23028AG  23080.58335648  .00008617  00000+0  73379-4 0  9999
2 55771  69.9938 105.0792 0003563 280.8002  27.0663 15.69918206  1307
STARLINK-5835           
1 55772U 23028AH  23080.58335648  .00038091  00000+0  31757-3 0  9992
2 55772  69.9950 105.0764 0003252 275.0089  35.2392 15.69889820  1306
STARLINK-5833           
1 55773U 23028AJ  23080.58335648  .00000500  00000+0  59323-5 0  9998
2 55773  69.9936 105.0799 0003588 275.2821  31.9891 15.69923169  1309
STARLINK-5812           
1 55774U 23028AK  23080.58335648  .00024264  00000+0  20312-3 0  9996
2 55774  69.9926 105.0783 0003490 277.0545  31.4100 15.69906586  1309
STARLINK-5809           
1 55775U 23028AL  23080.58335648  .00044776  00000+0  37265-3 0  9992
2 55775  69.9946 105.0771 0003276 274.5075  35.1460 15.69892736  1302
STARLINK-5810           
1 55776U 23028AM  23080.58335648 -.00069591  00000+0 -58089-3 0  9994
2 55776  69.9944 105.0729 0003369 275.4163  37.8017 15.69960927  1300
STARLINK-5814           
1 55777U 23028AN  23080.58335648 -.00045788  00000+0 -38075-3 0  9990
2 55777  69.9934 105.0756 0003452 272.6159  38.2271 15.69945529  1305
STARLINK-5816           
1 55778U 23028AP  23080.58335648 -.00058299  00000+0 -48584-3 0  9998
2 55778  69.9931 105.0749 0003417 272.1202  39.3144 15.69953469  1303
STARLINK-5817           
1 55779U 23028AQ  23080.58335648 -.00761029  00000+0 -56130-2 0  9996
2 55779  69.9996 104.9315 0003510 271.8964 168.1219 15.74839807  1306
STARLINK-5819           
1 55780U 23028AR  23080.58335648 -.00048535  00000+0 -40378-3 0  9996
2 55780  69.9932 105.0742 0003537 283.4613  28.5713 15.69948109  1301
STARLINK-5820           
1 55781U 23028AS  23080.58335648 -.00065347  00000+0 -54515-3 0  9995
2 55781  69.9939 105.0736 0003418 275.8796  36.7441 15.69957590  1300
STARLINK-5826           
1 55782U 23028AT  23080.58335648 -.00074662  00000+0 -62364-3 0  9997
2 55782  69.9933 105.0721 0003378 273.8676  39.9436 15.69964091  1302
STARLINK-5825           
1 55783U 23028AU  23080.58335648 -.00079921  00000+0 -66802-3 0  9992
2 55783  69.9940 105.0715 0003302 272.3608  42.0436 15.69967898  1303
STARLINK-5797           
1 55784U 23028AV  23080.58335648 -.00100665  00000+0 -84339-3 0  9998
2 55784  69.9929 105.0687 0003252 274.1437  42.6328 15.69983980  1309
STARLINK-5818           
1 55785U 23028AW  23080.58335648 -.00083669  00000+0 -69966-3 0  9992
2 55785  69.9930 105.0707 0003259 270.1968  44.8014 15.69970770  1306
STARLINK-5823           
1 55786U 23028AX  23080.58335648 -.00104127  00000+0 -87273-3 0  9997
2 55786  69.9925 105.0679 0003197 268.7411  48.6286 15.69986416  1303
STARLINK-5811           
1 55787U 23028AY  23080.58335648 -.00091805  00000+0 -76842-3 0  9996
2 55787  69.9935 105.0701 0003246 273.9832  41.6072 15.69976854  1302
STARLINK-5804           
1 55788U 23028AZ  23080.58335648 -.00096193  00000+0 -80555-3 0  9998
2 55788  69.9930 105.0693 0003189 271.7707  44.4130 15.69980165  1307
STARLINK-5815           
1 55789U 23028BA  23080.58335648 -.00118787  00000+0 -99719-3 0  9995
2 55789  69.9932 105.0659 0003409 276.1508  43.0021 15.69994827  1309
STARLINK-5813           
1 55790U 23028BB  23080.58335648 -.00118746  00000+0 -99685-3 0  9994
2 55790  69.9927 105.0665 0003274 270.7281  47.8295 15.69995407  1300
STARLINK-5807           
1 55791U 23028BC  23080.58335648 -.00114499  00000+0 -96075-3 0  9996
2 55791  69.9932 105.0673 0003227 276.5517  41.4111 15.69993125  1302
ONEWEB-0530             
1 55796U 23029A   23080.38383784  .00007183  00000+0  71720-3 0  9993
2 55796  86.5137 194.2219 0010285 168.4772 191.6693 14.91340141  1737
ONEWEB-0534             
1 55797U 23029B   23080.38427513  .00007110  00000+0  71099-3 0  9992
2 55797  86.5090 194.2143 0010093 169.2664 190.8780 14.91283323  1734
ONEWEB-0556             
1 55798U 23029C   23080.38322837  .00007054  00000+0  70288-3 0  9992
2 55798  86.5126 194.2198 0010575 167.2934 192.8562 14.91417286  1735
ONEWEB-0562             
1 55799U 23029D   23080.38510818  .00007007  00000+0  70258-3 0  9996
2 55799  86.5091 194.2157 0009618 170.1592 189.9825 14.91175544  1738
ONEWEB-0563             
1 55800U 23029E   23080.38444351  .00007264  00000+0  72680-3 0  9993
2 55800  86.5138 194.2229 0009820 169.7194 190.4236 14.91263285  1733
ONEWEB-0564             
1 55801U 23029F   23080.31632022  .00007244  00000+0  72234-3 0  9994
2 55801  86.5098 194.2450 0010484 167.9827 192.1653 14.91393059  1720
ONEWEB-0638             
1 55802U 23029G   23080.37880263  .00006916  00000+0  67891-3 0  9991
2 55802  86.5123 194.2182 0012892 171.3112 188.8342 14.91992826  1738
ONEWEB-0639             
1 55803U 23029H   23080.38588668  .00005256  00000+0  52774-3 0  9997
2 55803  86.5097 194.2175 0009330 173.9329 186.2013 14.91075052  1732
ONEWEB-0640             
1 55804U 23029J   23080.37628676  .00006863  00000+0  66809-3 0  9990
2 55804  86.5107 194.2143 0013451 177.8753 182.2535 14.92315591  1734
ONEWEB-0641             
1 55805U 23029K   23080.38094561  .00007148  00000+0  70682-3 0  9993
2 55805  86.5106 194.2140 0012070 168.7751 191.3748 14.91713510  1733
ONEWEB-0642             
1 55806U 23029L   23080.31786986  .00006804  00000+0  68194-3 0  9999
2 55806  86.5136 194.2526 0009708 170.1094 190.0326 14.91188484  1729
ONEWEB-0643             
1 55807U 23029M   23080.37914175  .00006985  00000+0  68651-3 0  9997
2 55807  86.5106 194.2127 0012992 171.5435 188.6015 14.91944360  1739
ONEWEB-0644             
1 55808U 23029N   23080.38561505  .00007226  00000+0  72585-3 0  9994
2 55808  86.5130 194.2222 0009382 171.0583 189.0814 14.91108089  1733
ONEWEB-0645             
1 55809U 23029P   23080.38069749  .00007045  00000+0  69604-3 0  9995
2 55809  86.5121 194.2195 0012203 168.6453 191.5053 14.91743039  1730
ONEWEB-0646             
1 55810U 23029Q   23080.38539026  .00006975  00000+0  70008-3 0  9998
2 55810  86.5133 194.2223 0009502 170.6851 189.4554 14.91134712  1734
ONEWEB-0648             
1 55811U 23029R   23080.37843324  .00007181  00000+0  70405-3 0  9998
2 55811  86.5113 194.2149 0013340 171.5406 188.6049 14.92041823  1732
ONEWEB-0649             
1 55812U 23029S   23080.31699031  .00005172  00000+0  51629-3 0  9992
2 55812  86.5091 194.2445 0010163 169.1801 190.9647 14.91298694  2403
ONEWEB-0650             
1 55813U 23029T   23080.38133303  .00007296  00000+0  72236-3 0  9991
2 55813  86.5116 194.2170 0011842 168.4712 191.6789 14.91664598  1735
ONEWEB-0652             
1 55814U 23029U   23080.37977695  .00010947  00000+0  10794-2 0  9998
2 55814  86.5107 194.2126 0012598 170.7548 189.3914 14.91855627  1738
ONEWEB-0653             
1 55815U 23029V   23080.38001492  .00003978  00000+0  39085-3 0  9994
2 55815  86.5118 194.2188 0012543 169.5168 190.6324 14.91842038  1735
ONEWEB-0654             
1 55816U 23029W   23080.30915509  .00007150  00000+0  69583-3 0  9992
2 55816  86.5123 194.2434 0014074 177.4404 182.6899 14.92328690  2405
ONEWEB-0656             
1 55817U 23029X   23080.37401882  .00007091  00000+0  68503-3 0  9999
2 55817  86.5105 194.2128 0014348 182.1447 177.9722 14.92614606  1732
ONEWEB-0657             
1 55818U 23029Y   23080.38026600  .00007297  00000+0  71989-3 0  9992
2 55818  86.5109 194.2129 0012421 169.3397 190.8097 14.91804358  1732
ONEWEB-0658             
1 55819U 23029Z   23080.38047342  .00006558  00000+0  64726-3 0  9999
2 55819  86.5105 194.2132 0012322 169.1209 191.0287 14.91774287  1734
ONEWEB-0660             
1 55820U 23029AA  23080.37941448  .00004964  00000+0  48744-3 0  9991
2 55820  86.5118 194.2189 0012883 170.7917 189.3550 14.91922746  1736
ONEWEB-0661             
1 55821U 23029AB  23080.37568409  .00007002  00000+0  68009-3 0  9996
2 55821  86.5100 194.2134 0014166 178.2237 181.9044 14.92399754  1736
ONEWEB-0662             
1 55822U 23029AC  23080.37934817  .00006784  00000+0  66715-3 0  9995
2 55822  86.5123 194.2188 0012905 171.2077 188.9379 14.91917879  1736
ONEWEB-0663             
1 55823U 23029AD  23080.37456555  .00006982  00000+0  67577-3 0  9991
2 55823  86.5126 194.2131 0014223 181.0834 179.0366 14.92541125  1738
ONEWEB-0664             
1 55824U 23029AE  23080.30843539  .00006973  00000+0  67695-3 0  9998
2 55824  86.5097 194.2426 0014202 179.3578 180.7671 14.92420504  1729
ONEWEB-0665             
1 55825U 23029AF  23080.37660832  .00007247  00000+0  70613-3 0  9998
2 55825  86.5115 194.2142 0013946 176.2955 183.8379 14.92280151  1737
ONEWEB-0666             
1 55826U 23029AG  23080.30787498  .00007056  00000+0  68371-3 0  9996
2 55826  86.5127 194.2436 0014173 180.4524 179.6694 14.92494924  1726
ONEWEB-0667             
1 55827U 23029AH  23080.37368885  .00006906  00000+0  66634-3 0  9992
2 55827  86.5113 194.2125 0014473 182.6678 177.4476 14.92657706  1738
ONEWEB-0669             
1 55828U 23029AJ  23080.37432264  .00007008  00000+0  67768-3 0  9999
2 55828  86.5103 194.2130 0014268 181.6312 178.4872 14.92573960  1730
ONEWEB-0670             
1 55829U 23029AK  23080.37588034  .00007137  00000+0  69376-3 0  9997
2 55829  86.5127 194.2137 0014129 177.9424 182.1865 14.92371752  1731
ONEWEB-0671             
1 55830U 23029AL  23080.38114575  .00007324  00000+0  72463-3 0  9994
2 55830  86.5106 194.2146 0012196 168.8885 191.2615 14.91690654  1730
ONEWEB-0672             
1 55831U 23029AM  23080.37465376  .00006933  00000+0  67115-3 0  9995
2 55831  86.5096 194.2124 0014198 180.6589 179.4623 14.92532793  1739
ONEWEB-0673             
1 55832U 23029AN  23080.38364504  .00006983  00000+0  69675-3 0  9996
2 55832  86.5093 194.2151 0010403 168.1431 192.0044 14.91363788  1732
